{
  "type": "FeatureCollection",
  "features": [
    {
      "type": "Feature",
      "properties": {
        "norad_id": 2807,
        "name": "OPS 7218 (TRANSIT 16)",
        "group": "nnss",
        "lat": 49.04876657721366,
        "lon": 173.67805769441318,
        "alt_km": 1049.3913790891074,
        "timestamp": "2025-12-11T13:55:02.433517+00:00",
        "meta_object_name": "OPS 7218 (TRANSIT 16)",
        "meta_object_id": "1967-048A",
        "meta_epoch": "2025-12-11T01:05:34.708704",
        "meta_mean_motion": 13.50721723,
        "meta_eccentricity": 0.00218869,
        "meta_inclination": 89.6732,
        "meta_ra_of_asc_node": 354.0725,
        "meta_arg_of_pericenter": 118.5998,
        "meta_mean_anomaly": 295.4439,
        "meta_ephemeris_type": 0,
        "meta_classification_type": "U",
        "meta_norad_cat_id": 2807,
        "meta_element_set_no": 999,
        "meta_rev_at_epoch": 88253,
        "meta_bstar": 0.0001946537,
        "meta_mean_motion_dot": 1.36e-06,
        "meta_mean_motion_ddot": 0,
        "tle_line1": "1 02807U 67048A   25345.04554061  .00000136  00000+0  19465-3 0  9993",
        "tle_line2": "2 02807  89.6732 354.0725 0021886 118.5998 295.4439 13.50721723882539"
      },
      "geometry": {
        "type": "Point",
        "coordinates": [
          173.67805769441318,
          49.04876657721366
        ]
      }
    },
    {
      "type": "Feature",
      "properties": {
        "norad_id": 2965,
        "name": "OPS 4947 (TRANSIT 17)",
        "group": "nnss",
        "lat": -3.6044974180867353,
        "lon": -155.4284394261516,
        "alt_km": 1042.9970510328767,
        "timestamp": "2025-12-11T13:55:02.433539+00:00",
        "meta_object_name": "OPS 4947 (TRANSIT 17)",
        "meta_object_id": "1967-092A",
        "meta_epoch": "2025-12-11T04:28:28.164576",
        "meta_mean_motion": 13.53452884,
        "meta_eccentricity": 0.00460941,
        "meta_inclination": 89.2497,
        "meta_ra_of_asc_node": 24.5542,
        "meta_arg_of_pericenter": 239.1652,
        "meta_mean_anomaly": 188.8277,
        "meta_ephemeris_type": 0,
        "meta_classification_type": "U",
        "meta_norad_cat_id": 2965,
        "meta_element_set_no": 999,
        "meta_rev_at_epoch": 87076,
        "meta_bstar": 0.00023164588,
        "meta_mean_motion_dot": 1.68e-06,
        "meta_mean_motion_ddot": 0,
        "tle_line1": "1 02965U 67092A   25345.18643709  .00000168  00000+0  23165-3 0  9997",
        "tle_line2": "2 02965  89.2497  24.5542 0046094 239.1652 188.8277 13.53452884870768"
      },
      "geometry": {
        "type": "Point",
        "coordinates": [
          -155.4284394261516,
          -3.6044974180867353
        ]
      }
    },
    {
      "type": "Feature",
      "properties": {
        "norad_id": 3133,
        "name": "OPS 7034 (TRANSIT 18)",
        "group": "nnss",
        "lat": -18.967066521760678,
        "lon": -86.35498831446094,
        "alt_km": 1125.3773932921831,
        "timestamp": "2025-12-11T13:55:02.433554+00:00",
        "meta_object_name": "OPS 7034 (TRANSIT 18)",
        "meta_object_id": "1968-012A",
        "meta_epoch": "2025-12-11T07:29:54.771936",
        "meta_mean_motion": 13.51565175,
        "meta_eccentricity": 0.00737089,
        "meta_inclination": 90.0278,
        "meta_ra_of_asc_node": 273.6347,
        "meta_arg_of_pericenter": 173.263,
        "meta_mean_anomaly": 307.1772,
        "meta_ephemeris_type": 0,
        "meta_classification_type": "U",
        "meta_norad_cat_id": 3133,
        "meta_element_set_no": 999,
        "meta_rev_at_epoch": 56899,
        "meta_bstar": 0.00025843593,
        "meta_mean_motion_dot": 1.81e-06,
        "meta_mean_motion_ddot": 0,
        "tle_line1": "1 03133U 68012A   25345.31243949  .00000181  00000+0  25844-3 0  9996",
        "tle_line2": "2 03133  90.0278 273.6347 0073708 173.2630 307.1772 13.51565175568990"
      },
      "geometry": {
        "type": "Point",
        "coordinates": [
          -86.35498831446094,
          -18.967066521760678
        ]
      }
    },
    {
      "type": "Feature",
      "properties": {
        "norad_id": 4507,
        "name": "NNSS 19 (TRANSIT 19)",
        "group": "nnss",
        "lat": -46.022180675035436,
        "lon": -125.46129606709297,
        "alt_km": 952.7173656690711,
        "timestamp": "2025-12-11T13:55:02.433566+00:00",
        "meta_object_name": "NNSS 19 (TRANSIT 19)",
        "meta_object_id": "1970-067A",
        "meta_epoch": "2025-12-11T05:15:12.507264",
        "meta_mean_motion": 13.51314509,
        "meta_eccentricity": 0.0170634,
        "meta_inclination": 90.0055,
        "meta_ra_of_asc_node": 234.5328,
        "meta_arg_of_pericenter": 297.8266,
        "meta_mean_anomaly": 60.5684,
        "meta_ephemeris_type": 0,
        "meta_classification_type": "U",
        "meta_norad_cat_id": 4507,
        "meta_element_set_no": 999,
        "meta_rev_at_epoch": 72201,
        "meta_bstar": 0.00023118437,
        "meta_mean_motion_dot": 1.72e-06,
        "meta_mean_motion_ddot": 0,
        "tle_line1": "1 04507U 70067A   25345.21889476  .00000172  00000+0  23118-3 0  9997",
        "tle_line2": "2 04507  90.0055 234.5328 0170634 297.8266  60.5684 13.51314509722018"
      },
      "geometry": {
        "type": "Point",
        "coordinates": [
          -125.46129606709297,
          -46.022180675035436
        ]
      }
    },
    {
      "type": "Feature",
      "properties": {
        "norad_id": 6909,
        "name": "NNSS 20 (TRANSIT 20)",
        "group": "nnss",
        "lat": -58.95382862636183,
        "lon": -105.16754240494438,
        "alt_km": 1090.1771171322616,
        "timestamp": "2025-12-11T13:55:02.433577+00:00",
        "meta_object_name": "NNSS 20 (TRANSIT 20)",
        "meta_object_id": "1973-081A",
        "meta_epoch": "2025-12-11T07:12:11.412576",
        "meta_mean_motion": 13.71433253,
        "meta_eccentricity": 0.01566046,
        "meta_inclination": 89.8562,
        "meta_ra_of_asc_node": 255.0757,
        "meta_arg_of_pericenter": 82.5797,
        "meta_mean_anomaly": 279.313,
        "meta_ephemeris_type": 0,
        "meta_classification_type": "U",
        "meta_norad_cat_id": 6909,
        "meta_element_set_no": 999,
        "meta_rev_at_epoch": 80341,
        "meta_bstar": 0.00034370719,
        "meta_mean_motion_dot": 3.49e-06,
        "meta_mean_motion_ddot": 0,
        "tle_line1": "1 06909U 73081A   25345.30013209  .00000349  00000+0  34371-3 0  9996",
        "tle_line2": "2 06909  89.8562 255.0757 0156604  82.5797 279.3130 13.71433253803418"
      },
      "geometry": {
        "type": "Point",
        "coordinates": [
          -105.16754240494438,
          -58.95382862636183
        ]
      }
    },
    {
      "type": "Feature",
      "properties": {
        "norad_id": 10457,
        "name": "TRANSAT",
        "group": "nnss",
        "lat": -31.538238874669645,
        "lon": 78.42212711651561,
        "alt_km": 1095.659963451486,
        "timestamp": "2025-12-11T13:55:02.433589+00:00",
        "meta_object_name": "TRANSAT",
        "meta_object_id": "1977-106A",
        "meta_epoch": "2025-12-11T07:14:56.178240",
        "meta_mean_motion": 13.48943387,
        "meta_eccentricity": 0.00252588,
        "meta_inclination": 89.6482,
        "meta_ra_of_asc_node": 78.648,
        "meta_arg_of_pericenter": 193.6738,
        "meta_mean_anomaly": 226.1944,
        "meta_ephemeris_type": 0,
        "meta_classification_type": "U",
        "meta_norad_cat_id": 10457,
        "meta_element_set_no": 999,
        "meta_rev_at_epoch": 36724,
        "meta_bstar": 0.0002017217,
        "meta_mean_motion_dot": 1.37e-06,
        "meta_mean_motion_ddot": 0,
        "tle_line1": "1 10457U 77106A   25345.30203910  .00000137  00000+0  20172-3 0  9990",
        "tle_line2": "2 10457  89.6482  78.6480 0025258 193.6738 226.1944 13.48943387367248"
      },
      "geometry": {
        "type": "Point",
        "coordinates": [
          78.42212711651561,
          -31.538238874669645
        ]
      }
    },
    {
      "type": "Feature",
      "properties": {
        "norad_id": 12458,
        "name": "NOVA 1",
        "group": "nnss",
        "lat": -23.336217139034144,
        "lon": 91.33780864326575,
        "alt_km": 1185.342578563921,
        "timestamp": "2025-12-11T13:55:02.433605+00:00",
        "meta_object_name": "NOVA 1",
        "meta_object_id": "1981-044A",
        "meta_epoch": "2025-12-11T06:51:27.610272",
        "meta_mean_motion": 13.23278364,
        "meta_eccentricity": 0.00158855,
        "meta_inclination": 89.8524,
        "meta_ra_of_asc_node": 91.4057,
        "meta_arg_of_pericenter": 107.5684,
        "meta_mean_anomaly": 268.8677,
        "meta_ephemeris_type": 0,
        "meta_classification_type": "U",
        "meta_norad_cat_id": 12458,
        "meta_element_set_no": 999,
        "meta_rev_at_epoch": 15167,
        "meta_bstar": 0.00017715712,
        "meta_mean_motion_dot": 8.4e-07,
        "meta_mean_motion_ddot": 0,
        "tle_line1": "1 12458U 81044A   25345.28573623  .00000084  00000+0  17716-3 0  9998",
        "tle_line2": "2 12458  89.8524  91.4057 0015885 107.5684 268.8677 13.23278364151675"
      },
      "geometry": {
        "type": "Point",
        "coordinates": [
          91.33780864326575,
          -23.336217139034144
        ]
      }
    }
  ]
}